ONEWEB-0371             
1 49297U 21090U   24268.69740548  .00000114  00000+0  25321-3 0  9999
2 49297  87.9107  70.3599 0001859  93.8856 266.2489 13.19724960143298
ONEWEB-0372             
1 49298U 21090V   24268.63758816  .00000059  00000+0  11362-3 0  9999
2 49298  87.9254  39.8672 0001807 101.9078 258.2258 13.20772504147900
ONEWEB-0373             
1 49299U 21090W   24268.81606041 -.00000029  00000+0 -10352-3 0  9999
2 49299  87.9251  39.8465 0001475 102.3171 257.8128 13.20772988149110
ONEWEB-0374             
1 49300U 21090X   24268.71124937  .00000315  00000+0  81585-3 0  9992
2 49300  87.8965  55.0762 0001607  97.9069 262.2243 13.14503252144736
ONEWEB-0375             
1 49301U 21090Y   24268.65192328  .00000035  00000+0  54662-4 0  9991
2 49301  87.9254  39.8557 0001221  80.9204 279.2067 13.20773091147299
ONEWEB-0376             
1 49302U 21090Z   24268.69585225  .00000106  00000+0  23361-3 0  9998
2 49302  87.9100  70.3621 0001840 101.4020 258.7320 13.19724335143299
ONEWEB-0377             
1 49303U 21090AA  24268.63787004  .00000127  00000+0  28157-3 0  9993
2 49303  87.9254  39.8506 0001928  91.5187 268.6167 13.20770668148568
ONEWEB-0378             
1 49304U 21090AB  24268.81144355 -.00000038  00000+0 -12609-3 0  9998
2 49304  87.9257  39.8201 0001658  96.8089 263.3233 13.20775381147891
